From: horizons@ssd.jpl.nasa.gov (Horizons Ephemeris System)
Subject: [Horizons] SMALL BODY #C(500@10)_T(15P/Finlay) (1/1)
Date: February 4, 2021 at 3:35:25 PM PST

Automated mail xmit by PORT_LOGIN, PID= 5439 Thu Feb  4 15:35:25 2021
++++++++++++++++++++++++++++++++ (part 1 of 1)  +++++++++++++++++++++++++++++++
*******************************************************************************
Ephemeris / PORT_LOGIN Thu Feb  4 15:34:55 2021 Pasadena, USA    / Horizons
*******************************************************************************
Target body name: 15P/Finlay                      {source: JPL#K142/2}
Center body name: Sun (10)                        {source: DE431}
Center-site name: BODY CENTER
*******************************************************************************
Start time      : A.D. 2030-Jan-01 00:00:00.0000 TDB
Stop  time      : A.D. 2037-Jan-01 00:00:00.0000 TDB
Step-size       : 20160 minutes
*******************************************************************************
Center geodetic : 0.00000000,0.00000000,0.0000000 {E-lon(deg),Lat(deg),Alt(km)}
Center cylindric: 0.00000000,0.00000000,0.0000000 {E-lon(deg),Dxy(km),Dz(km)}
Center radii    : 696000.0 x 696000.0 x 696000.0 k{Equator, meridian, pole}    
Small perturbers: Yes                             {source: SB431-N16}
Output units    : AU-D
Output type     : GEOMETRIC cartesian states
Output format   : 3 (position, velocity, LT, range, range-rate)
Reference frame : Ecliptic of J2000.0
*******************************************************************************
Initial IAU76/J2000 heliocentric ecliptic osculating elements (au, days, deg.):
 EPOCH=  2456406.5 ! 2013-Apr-24.0000000 (TDB)    RMSW= n.a.                  
  EC= .7204670323736734   QR= .9746503145016036   TP= 2457018.4345876598      
  OM= 13.80063967391148   W= 347.5656143942961    IN= 6.803655945058429       
 Equivalent ICRF heliocentric equatorial cartesian coordinates (au, au/d):
  X=-4.516275540209837E+00  Y=-1.844032150859829E+00  Z=-9.192225686715535E-01
 VX= 5.288555874917156E-03 VY=-2.108342330164854E-03 VZ=-1.392349478769353E-03
Comet physical (GM= km^3/s^2; RAD= km):                                        
  GM= n.a.                RAD= n.a.                                           
  M1=  10.3     M2=  15.1     k1=  19.    k2=  5.      PHCOF=  .030           
Comet non-gravitational force model (AMRAT=m^2/kg;A1-A3=au/d^2;DT=days;R0=au): 
  AMRAT=  0.                                      DT=  0.                     
  A1= 7.829547673464E-10  A2= 2.826333418489E-10  A3= 1.812163442373E-9       
Standard model:                                                               
  ALN=  .1112620426   NK=  4.6142   NM=  2.15     NN=  5.093    R0=  2.808    
*******************************************************************************
           JDTDB,            Calendar Date (TDB),                      X,                      Y,                      Z,                     VX,                     VY,                     VZ,                     LT,                     RG,                     RR,
**************************************************************************************************************************************************************************************************************************************************************************
$$SOE
2464854.500000000, A.D. 2036-Jun-10 00:00:00.0000, -4.730831926331331E+00,  1.771865570796826E+00,  3.387596916102176E-01, -4.922794184013102E-03, -2.877046568088735E-03, -1.938746749645192E-04,  2.924205813914517E-02,  5.063105415141070E+00,  3.579916616708393E-03,
2464868.500000000, A.D. 2036-Jun-24 00:00:00.0000, -4.798699441732720E+00,  1.731197533334908E+00,  3.359706740445146E-01, -4.772938031307679E-03, -2.932193767069923E-03, -2.044902963609718E-04,  2.952721392414241E-02,  5.112478608789353E+00,  3.473654770156779E-03,
2464882.500000000, A.D. 2036-Jul-08 00:00:00.0000, -4.864484345568552E+00,  1.689777195009862E+00,  3.330357621234488E-01, -4.625258326035269E-03, -2.984543132661409E-03, -2.147202874564043E-04,  2.980383906390446E-02,  5.160374767001914E+00,  3.368897618580999E-03,
2464896.500000000, A.D. 2036-Jul-22 00:00:00.0000, -4.928216334747221E+00,  1.647642728057660E+00,  3.299602154291804E-01, -4.479648814039978E-03, -3.034235327897963E-03, -2.245839900000598E-04,  3.007205220921017E-02,  5.206814433524273E+00,  3.265574204999076E-03,
2464910.500000000, A.D. 2036-Aug-05 00:00:00.0000, -4.989923727820512E+00,  1.604830351169096E+00,  3.267490345057910E-01, -4.336013966045626E-03, -3.081410161288476E-03, -2.340996360993190E-04,  3.033196667407341E-02,  5.251817228069742E+00,  3.163618585814453E-03,
2464924.500000000, A.D. 2036-Aug-19 00:00:00.0000, -5.049633485356808E+00,  1.561374385916893E+00,  3.234069678289120E-01, -4.194256326009575E-03, -3.126196932349076E-03, -2.432847611071173E-04,  3.058369025156838E-02,  5.295401814430552E+00,  3.062961783820992E-03,
2464938.500000000, A.D. 2036-Sep-02 00:00:00.0000, -5.107371228837651E+00,  1.517307434386851E+00,  3.199385280000407E-01, -4.054282558842427E-03, -3.168712550312039E-03, -2.521555313097023E-04,  3.082732528758346E-02,  5.337585913247960E+00,  2.963538380864576E-03,
2464952.500000000, A.D. 2036-Sep-16 00:00:00.0000, -5.163161309135689E+00,  1.472660527223615E+00,  3.163480096183002E-01, -3.916004258842377E-03, -3.209065333045851E-03, -2.607270081951666E-04,  3.106296899336999E-02,  5.378386356128365E+00,  2.865286414902384E-03,
2464966.500000000, A.D. 2036-Sep-30 00:00:00.0000, -5.217026841957225E+00,  1.427463222403394E+00,  3.126394997806904E-01, -3.779331589314697E-03, -3.247356153578998E-03, -2.690138419116122E-04,  3.129071351647460E-02,  5.417819097924882E+00,  2.768141247020810E-03,
2464980.500000000, A.D. 2036-Oct-14 00:00:00.0000, -5.268989686163532E+00,  1.381743808453624E+00,  3.088168917479054E-01, -3.644179709130596E-03, -3.283664587560100E-03, -2.770285519837476E-04,  3.151064587432979E-02,  5.455899205238897E+00,  2.672045513357051E-03,
2464994.500000000, A.D. 2036-Oct-28 00:00:00.0000, -5.319070656608392E+00,  1.335529493630294E+00,  3.048839190401887E-01, -3.510481052474712E-03, -3.318070038913332E-03, -2.847821152859681E-04,  3.172284916601600E-02,  5.492641066230172E+00,  2.576955366251876E-03,
2465008.500000000, A.D. 2036-Nov-11 00:00:00.0000, -5.367289612414017E+00,  1.288846359814603E+00,  3.008441591567145E-01, -3.378166121195150E-03, -3.350651145311980E-03, -2.922856527097420E-04,  3.192740276071845E-02,  5.528058423247122E+00,  2.482822705077462E-03,
2465022.500000000, A.D. 2036-Nov-25 00:00:00.0000, -5.413665452828271E+00,  1.241719441130601E+00,  2.967010394333862E-01, -3.247168090070639E-03, -3.381479353557676E-03, -2.995494493780155E-04,  3.212438219497368E-02,  5.562164355035625E+00,  2.389601524561600E-03,
2465036.500000000, A.D. 2036-Dec-09 00:00:00.0000, -5.458216172216455E+00,  1.194172802731078E+00,  2.924578487858611E-01, -3.117424397460487E-03, -3.410622269408334E-03, -3.065830521241240E-04,  3.231385941587733E-02,  5.594971318849124E+00,  2.297248824880484E-03,
2465050.500000000, A.D. 2036-Dec-23 00:00:00.0000, -5.500958898167983E+00,  1.146229568112489E+00,  2.881177440682015E-01, -2.988872082093238E-03, -3.438146788411058E-03, -3.133959314401540E-04,  3.249590287886672E-02,  5.626491167379169E+00,  2.205719633983367E-03,
